H1 CPF  1  DLR 2021 10 02 10  7752 technosat            
H2  1704205 6203    42829 2021 10 02 00 00 00 2021 10 09 00 00 00    60 1 1  0 0 0
H9
10 0 59490      0.000000  0      -3158680.101       2890404.297      -5523786.159
10 0 59490     60.000000  0      -3331099.991       3205364.904      -5241583.713
10 0 59490    120.000000  0      -3486916.745       3508386.786      -4937350.548
10 0 59490    180.000000  0      -3625584.700       3798051.554      -4612356.545
10 0 59490    240.000000  0      -3746641.043       4072990.676      -4267959.412
10 0 59490    300.000000  0      -3849707.395       4331891.984      -3905599.278
10 0 59490    360.000000  0      -3934490.962       4573505.981      -3526792.944
10 0 59490    420.000000  0      -4000785.361       4796651.971      -3133127.844
10 0 59490    480.000000  0      -4048471.098       5000223.954      -2726255.599
10 0 59490    540.000000  0      -4077515.609       5183196.216      -2307885.258
10 0 59490    600.000000  0      -4087972.903       5344628.652      -1879776.276
10 0 59490    660.000000  0      -4079982.813       5483671.774      -1443731.182
10 0 59490    720.000000  0      -4053769.808       5599571.350      -1001587.957
10 0 59490    780.000000  0      -4009641.322       5691672.537       -555212.150
10 0 59490    840.000000  0      -3947985.735       5759423.483       -106489.014
10 0 59490    900.000000  0      -3869270.062       5802378.650        342684.542
10 0 59490    960.000000  0      -3774037.135       5820201.572        790408.191
10 0 59490   1020.000000  0      -3662902.452       5812667.123       1234786.400
10 0 59490   1080.000000  0      -3536550.672       5779663.268       1673936.707
10 0 59490   1140.000000  0      -3395731.705       5721192.190       2105997.961
10 0 59490   1200.000000  0      -3241256.502       5637370.824       2529138.383
10 0 59490   1260.000000  0      -3073992.592       5528430.863       2941563.474
10 0 59490   1320.000000  0      -2894859.388       5394718.234       3341523.712
10 0 59490   1380.000000  0      -2704823.286       5236692.089       3727322.088
10 0 59490   1440.000000  0      -2504892.527       5054923.204       4097321.421
10 0 59490   1500.000000  0      -2296111.919       4850091.845       4449951.347
10 0 59490   1560.000000  0      -2079557.459       4622985.143       4783715.015
10 0 59490   1620.000000  0      -1856330.829       4374493.977       5097195.508
10 0 59490   1680.000000  0      -1627553.766       4105609.315       5389061.861
10 0 59490   1740.000000  0      -1394362.427       3817418.102       5658074.622
10 0 59490   1800.000000  0      -1157901.785       3511098.730       5903091.041
10 0 59490   1860.000000  0       -919320.010       3187916.082       6123069.858
10 0 59490   1920.000000  0       -679762.903       2849216.157       6317075.612
10 0 59490   1980.000000  0       -440368.445       2496420.398       6484282.468
10 0 59490   2040.000000  0       -202261.421       2131019.730       6623977.694
10 0 59490   2100.000000  0         33451.882       1754568.179       6735564.700
10 0 59490   2160.000000  0        265688.831       1368676.162       6818565.510
10 0 59490   2220.000000  0        493395.423        975003.588       6872622.713
10 0 59490   2280.000000  0        715551.066        575252.749       6897500.981
10 0 59490   2340.000000  0        931173.169        171160.996       6893088.163
10 0 59490   2400.000000  0       1139321.512       -235506.806       6859395.896
10 0 59490   2460.000000  0       1339102.388       -642966.053       6796559.726
10 0 59490   2520.000000  0       1529672.514      -1049420.281       6704838.619
10 0 59490   2580.000000  0       1710242.647      -1453069.060       6584614.038
10 0 59490   2640.000000  0       1880080.932      -1852116.057       6436388.604
10 0 59490   2700.000000  0       2038515.971      -2244777.160       6260784.165
10 0 59490   2760.000000  0       2184939.575      -2629288.568       6058539.374
10 0 59490   2820.000000  0       2318809.215      -3003914.887       5830506.791
10 0 59490   2880.000000  0       2439650.117      -3366957.163       5577649.412
10 0 59490   2940.000000  0       2547056.987      -3716760.750       5301036.757
10 0 59490   3000.000000  0       2640695.419      -4051723.078       5001840.531
10 0 59490   3060.000000  0       2720302.951      -4370301.278       4681329.822
10 0 59490   3120.000000  0       2785689.808      -4671019.620       4340865.773
10 0 59490   3180.000000  0       2836739.221      -4952476.629       3981895.765
10 0 59490   3240.000000  0       2873407.348      -5213351.890       3605947.279
10 0 59490   3300.000000  0       2895722.849      -5452412.600       3214621.371
10 0 59490   3360.000000  0       2903786.077      -5668519.725       2809585.697
10 0 59490   3420.000000  0       2897767.865      -5860633.667       2392567.192
10 0 59490   3480.000000  0       2877907.936      -6027819.481       1965344.485
10 0 59490   3540.000000  0       2844512.942      -6169251.533       1529740.071
10 0 59490   3600.000000  0       2797954.257      -6284217.757       1087612.351
10 0 59490   3660.000000  0       2738665.397      -6372123.352        640847.380
10 0 59490   3720.000000  0       2667139.128      -6432493.938        191350.520
10 0 59490   3780.000000  0       2583924.213      -6464978.126       -258962.116
10 0 59490   3840.000000  0       2489621.910      -6469349.361       -708172.258
10 0 59490   3900.000000  0       2384882.180      -6445507.121      -1154368.030
10 0 59490   3960.000000  0       2270399.638      -6393477.501      -1595652.354
10 0 59490   4020.000000  0       2146909.343      -6313413.227      -2030151.219
10 0 59490   4080.000000  0       2015182.504      -6205593.168      -2456021.946
10 0 59490   4140.000000  0       1876021.766      -6070420.998      -2871461.396
10 0 59490   4200.000000  0       1730256.485      -5908423.108      -3274713.575
10 0 59490   4260.000000  0       1578738.079      -5720246.186      -3664077.038
10 0 59490   4320.000000  0       1422335.266      -5506654.213      -4037912.089
10 0 59490   4380.000000  0       1261929.265      -5268524.887      -4394647.588
10 0 59490   4440.000000  0       1098408.995      -5006845.562      -4732787.386
10 0 59490   4500.000000  0        932666.313      -4722708.742      -5050916.357
10 0 59490   4560.000000  0        765591.315      -4417307.130      -5347706.073
10 0 59490   4620.000000  0        598067.711      -4091928.236      -5621920.041
10 0 59490   4680.000000  0        430968.308      -3747948.602      -5872418.492
10 0 59490   4740.000000  0        265150.625      -3386827.704      -6098162.706
10 0 59490   4800.000000  0        101452.662      -3010101.540      -6298218.911
10 0 59490   4860.000000  0        -59311.168      -2619375.945      -6471761.727
10 0 59490   4920.000000  0       -216353.929      -2216319.645      -6618077.161
10 0 59490   4980.000000  0       -368919.849      -1802657.113      -6736565.133
10 0 59490   5040.000000  0       -516287.784      -1380161.246      -6826741.602
10 0 59490   5100.000000  0       -657774.465       -950645.825      -6888240.261
10 0 59490   5160.000000  0       -792737.509       -515957.841      -6920813.733
10 0 59490   5220.000000  0       -920578.220        -77969.712      -6924334.298
10 0 59490   5280.000000  0      -1040744.131        361428.505      -6898794.200
10 0 59490   5340.000000  0      -1152731.299        800337.004      -6844305.603
10 0 59490   5400.000000  0      -1256086.327       1236854.253      -6761100.088
10 0 59490   5460.000000  0      -1350408.114       1669084.958      -6649527.615
10 0 59490   5520.000000  0      -1435349.341       2095147.971      -6510055.200
10 0 59490   5580.000000  0      -1510617.688       2513184.268      -6343265.213
10 0 59490   5640.000000  0      -1575976.821       2921364.939      -6149853.195
10 0 59490   5700.000000  0      -1631247.063       3317899.054      -5930625.142
10 0 59490   5760.000000  0      -1676305.758       3701041.364      -5686494.455
10 0 59490   5820.000000  0      -1711087.380       4069099.937      -5418478.507
10 0 59490   5880.000000  0      -1735583.384       4420443.662      -5127694.741
10 0 59490   5940.000000  0      -1749841.757       4753509.552      -4815356.340
10 0 59490   6000.000000  0      -1753966.282       5066809.801      -4482767.450
10 0 59490   6060.000000  0      -1748115.505       5358938.558      -4131318.026
10 0 59490   6120.000000  0      -1732501.431       5628578.395      -3762478.295
10 0 59490   6180.000000  0      -1707387.917       5874506.433      -3377792.870
10 0 59490   6240.000000  0      -1673088.809       6095600.111      -2978874.544
10 0 59490   6300.000000  0      -1629965.855       6290842.619      -2567397.752
10 0 59490   6360.000000  0      -1578426.346       6459327.909      -2145091.652
10 0 59490   6420.000000  0      -1518920.489       6600265.173      -1713732.897
10 0 59490   6480.000000  0      -1451938.570       6712982.763      -1275138.227
10 0 59490   6540.000000  0      -1378007.920       6796931.690       -831156.901
10 0 59490   6600.000000  0      -1297689.672       6851688.619       -383662.848
10 0 59490   6660.000000  0      -1211575.311       6876958.253         65453.334
10 0 59490   6720.000000  0      -1120283.071       6872575.157        514292.544
10 0 59490   6780.000000  0      -1024454.210       6838504.891        960955.468
10 0 59490   6840.000000  0       -924749.168       6774844.446       1403550.869
10 0 59490   6900.000000  0       -821843.615       6681822.023       1840203.788
10 0 59490   6960.000000  0       -716424.428       6559796.192       2269063.623
10 0 59490   7020.000000  0       -609185.643       6409254.507       2688312.081
10 0 59490   7080.000000  0       -500824.394       6230811.530       3096171.031
10 0 59490   7140.000000  0       -392036.838       6025206.190       3490910.165
99
